ONEWEB-0505             
1 54123U 22138L   24198.72957208  .00000032  00000+0  47994-4 0  9996
2 54123  87.9132  84.3411 0002390  63.3127 296.8251 13.19725311 84428
ONEWEB-0506             
1 54124U 22138M   24198.70429171  .00000064  00000+0  12728-3 0  9999
2 54124  87.9131  84.3430 0002004  72.0991 288.0360 13.19724693 84412
ONEWEB-0507             
1 54125U 22138N   24198.72483196  .00000041  00000+0  69127-4 0  9990
2 54125  87.9142  84.3628 0001898  67.6045 292.5289 13.19725072 84461
ONEWEB-0508             
1 54126U 22138P   24198.72168037  .00000057  00000+0  10926-3 0  9994
2 54126  87.9138  84.3560 0001939  61.9352 298.1976 13.19725716 84444
ONEWEB-0509             
1 54127U 22138Q   24199.22711891  .00000034  00000+0  52600-4 0  9994
2 54127  87.9130  84.2401 0001954  73.3793 286.7554 13.19725905 85359
ONEWEB-0510             
1 54128U 22138R   24199.13874349  .00000014  00000+0  23556-5 0  9990
2 54128  87.9189  53.7041 0001376  91.8315 268.2976 13.20772721 87779
